satname,norad_id,inclination_deg,eccentricity,mean_motion_rev_per_day,perigee_km,apogee_km,l1,l2
STARLINK-1202,45183,53.1603,0.0001412,15.30200079,474.24714026067886,476.18252681847025,1 45183U 20012F   26081.03299760  .00001865  00000+0  75084-4 0  9996,2 45183  53.1603 341.9193 0001412  81.2628 278.8532 15.30200079336842
STARLINK-1216,45185,53.1592,0.0001412,15.30208793,474.2211256268829,476.1565048371049,1 45185U 20012H   26081.02351334  .00002683  00000+0  10265-3 0  9991,2 45185  53.1592 341.9423 0001412  87.7017 272.4146 15.30208793336785
STARLINK-1225,45187,53.1597,0.0001576,15.30199727,474.13579613363163,476.2959729628419,1 45187U 20012K   26080.88980409  .00000326  00000+0  23139-4 0  9994,2 45187  53.1597 343.0028 0001576  88.4099 271.7083 15.30199727336806
STARLINK-1230,45189,53.1605,0.0001505,15.30184186,474.2308509867016,476.29372417226296,1 45189U 20012M   26081.02993163 -.00000524  00000+0 -55727-5 0  9995,2 45189  53.1605 342.4112 0001505  87.6944 272.4230 15.30184186334057
STARLINK-1234,45190,53.0424,0.0005024,15.64799397,370.42357130397795,377.20793342955585,1 45190U 20012N   26080.66675222  .00071434  00000+0  71859-3 0  9997,2 45190  53.0424 266.6200 0005024 331.2590  28.8146 15.64799397337759
STARLINK-1269,45197,53.1601,0.000127,15.30205024,474.3296948942243,476.07044250967374,1 45197U 20012V   26080.89611140  .00002700  00000+0  10322-3 0  9996,2 45197  53.1601 342.8914 0001270  86.4098 273.7048 15.30205024336780
STARLINK-1154,45198,53.048,0.0006465,15.48185295,417.6384527579148,426.43107484851225,1 45198U 20012W   26080.89476194  .00082841  00000+0  15400-2 0  9990,2 45198  53.0480 311.6861 0006465 144.3502 215.7938 15.48185295337180
STARLINK-1199,45201,53.1584,0.0001287,15.30203537,474.3224835430592,476.08653364737165,1 45201U 20012Z   26080.93070783  .00003339  00000+0  12480-3 0  9995,2 45201  53.1584 326.9790 0001287  88.4600 271.6548 15.30203537337038
STARLINK-1209,45206,53.0447,0.0007082,15.53163695,402.6902147105184,412.3013850082398,1 45206U 20012AE  26080.90846846  .00056039  00000+0  87830-3 0  9994,2 45206  53.0447 274.6107 0007082 313.1754  46.8663 15.53163695336818
STARLINK-1231,45212,53.0452,0.0004188,15.22125255,496.5509975825553,502.3116488100659,1 45212U 20012AL  26080.96194007  .00021310  00000+0  92949-3 0  9993,2 45212  53.0452 319.3807 0004188 136.4940 223.6387 15.22125255337097
STARLINK-1271,45217,53.159,0.0001168,15.30187337,474.45240317766456,476.05335505342646,1 45217U 20012AR  26080.92863050 -.00001721  00000+0 -46019-4 0  9999,2 45217  53.1590 327.1140 0001168  72.5824 287.5305 15.30187337337030
STARLINK-1191,45222,53.1595,6.02e-05,15.31126055,472.0390244039236,472.8638352508751,1 45222U 20012AW  26080.87991119  .00028277  00000+0  93605-3 0  9992,2 45222  53.1595 302.1684 0000602 137.0313 223.0735 15.31126055337380
STARLINK-1212,45223,53.0478,0.0005091,15.54327078,400.6565945992106,407.56227792060963,1 45223U 20012AX  26081.07564766  .00062927  00000+0  94424-3 0  9990,2 45223  53.0478 290.3551 0005091 167.5139 192.5998 15.54327078337566
STARLINK-1215,45225,53.1598,0.0001507,15.30202416,474.175056618551,476.2406547580549,1 45225U 20012AZ  26080.93487080  .00002463  00000+0  95263-4 0  9991,2 45225  53.1598 301.4264 0001507 105.0263 255.0905 15.30202416337352
STARLINK-1221,45227,53.0655,0.0003457,15.42351955,436.81321537478834,441.52670140581904,1 45227U 20012BB  26080.77136477  .00023317  00000+0  54009-3 0  9999,2 45227  53.0655 212.3422 0003457  65.2260 294.9105 15.42351955338578
STARLINK-1222,45228,53.0544,0.0003647,15.50347994,413.23152369944,418.18695514647516,1 45228U 20012BC  26081.25937823  .00030922  00000+0  54155-3 0  9990,2 45228  53.0544 282.5109 0003647 123.9006 236.2349 15.50347994337573
STARLINK-1226,45229,53.1584,0.0001121,15.31194421,471.4795864845828,473.015442692752,1 45229U 20012BD  26080.89540257  .00048723  00000+0  15965-2 0  9994,2 45229  53.1584 301.8819 0001121 123.5084 236.6025 15.31194421337286
STARLINK-1227,45230,53.1567,5.26e-05,15.3181894,470.0252319348501,470.74569649808655,1 45230U 20012BE  26080.91137395  .00029923  00000+0  96856-3 0  9994,2 45230  53.1567 301.9978 0000526 121.2540 238.8513 15.31818940337405
STARLINK-1246,45235,53.1597,0.0001361,15.30203598,474.2715867063871,476.1370662154495,1 45235U 20012BK  26081.03615820  .00002809  00000+0  10692-3 0  9995,2 45235  53.1597 341.9004 0001361  83.7103 276.4053 15.30203598336864
STARLINK-1270,45237,53.0487,0.0002929,15.48877641,418.0169916462801,421.9993450859092,1 45237U 20012BM  26080.84901963  .00045788  00000+0  83894-3 0  9998,2 45237  53.0487 289.3813 0002929 152.4359 207.6804 15.48877641337556
STARLINK-1279,45360,53.0427,0.0002116,15.59407421,387.9389807943653,390.80299017382276,1 45360U 20019A   26080.88335220  .00075541  00000+0  93612-3 0  9992,2 45360  53.0427  39.4376 0002116 128.1568 231.9635 15.59407421332571
STARLINK-1301,45361,53.0432,5.48e-05,15.66373413,368.9219709699328,369.6614891587478,1 45361U 20019B   26081.17162923  .00068295  00000+0  64599-3 0  9994,2 45361  53.0432  42.7458 0000548 193.5997 166.5003 15.66373413332567
STARLINK-1262,45366,53.1572,0.0001247,15.29363687,476.85836260449923,478.568211666111,1 45366U 20019G   26081.28451177  .00002325  00000+0  92865-4 0  9993,2 45366  53.1572 106.6820 0001247  93.3196 266.7947 15.29363687331689
STARLINK-1273,45367,53.0498,0.0004031,15.45922451,425.9251568134532,431.41280379477394,1 45367U 20019H   26081.27644198  .00029969  00000+0  61238-3 0  9992,2 45367  53.0498  94.8513 0004031  43.7675 316.3651 15.45922451331848
STARLINK-1277,45369,53.0515,0.0005822,15.50908316,410.1183670747896,418.027216156147,1 45369U 20019K   26081.26780230  .00052654  00000+0  89581-3 0  9999,2 45369  53.0515  92.2601 0005822  51.0375 309.1152 15.50908316331888
STARLINK-1281,45370,53.1587,0.0001273,15.30201389,474.3384909283441,476.0833533093155,1 45370U 20019L   26081.27718860  .00002063  00000+0  81742-4 0  9993,2 45370  53.1587 106.8175 0001273  85.5339 274.5807 15.30201389331680
STARLINK-1300,45374,53.1592,0.0001209,15.30171039,474.4729623890644,476.1301238287879,1 45374U 20019Q   26081.29932641  .00013777  00000+0  47683-3 0  9993,2 45374  53.1592 106.7231 0001209  91.6754 268.4386 15.30171039331682
STARLINK-1302,45375,53.0521,0.0003792,15.55724052,397.4784278899833,402.61900393693304,1 45375U 20019R   26081.24071770  .00069044  00000+0  98314-3 0  9991,2 45375  53.0521  91.1042 0003792   0.5331 359.5683 15.55724052331891
STARLINK-1304,45376,53.0486,0.0003728,15.50218464,413.5547914460458,418.6205653662655,1 45376U 20019S   26081.28854898  .00053212  00000+0  92786-3 0  9993,2 45376  53.0486  89.1014 0003728  27.0342 333.0860 15.50218464331921
STARLINK-1305,45377,53.0443,0.0003494,15.55286759,398.9504424362085,403.68792641788605,1 45377U 20019T   26081.24891786  .00054824  00000+0  79619-3 0  9997,2 45377  53.0443  71.5962 0003494 116.6820 243.4548 15.55286759332170
STARLINK-1319,45379,53.0443,0.0002961,15.66623468,366.57602063497416,370.5714227243525,1 45379U 20019V   26081.24378133  .00063697  00000+0  59708-3 0  9990,2 45379  53.0443  68.0078 0002961  84.6741 275.4612 15.66623468332222
STARLINK-1266,45383,53.0505,0.0004956,15.47315692,421.2109291182005,427.9537845446921,1 45383U 20019Z   26081.26091501  .00055303  00000+0  10665-2 0  9991,2 45383  53.0505  72.9578 0004956  55.3721 304.7753 15.47315692332143
STARLINK-1267,45384,53.0492,0.0002287,15.51829306,409.8323713849222,412.9378988095159,1 45384U 20019AA  26081.25052572  .00058509  00000+0  96220-3 0  9999,2 45384  53.0492  66.6498 0002287 337.5267  22.5641 15.51829306332233
STARLINK-1272,45386,53.0456,0.0002619,15.58245796,390.96059135315863,394.5071735213787,1 45386U 20019AC  26081.18078351  .00052712  00000+0  68639-3 0  9999,2 45386  53.0456  49.1537 0002619 135.7375 224.3847 15.58245796332470
STARLINK-1274,45387,53.0277,0.0002228,15.49033743,418.03691914377487,421.06596911447923,1 45387U 20019AD  26081.18165934  .00055650  00000+0  10111-2 0  9999,2 45387  53.0277  43.1284 0002228 261.7777  98.2978 15.49033743332556
STARLINK-1280,45388,53.0425,0.0001795,15.66979756,366.3401545684219,368.7618565624207,1 45388U 20019AE  26081.22120376  .00067934  00000+0  62712-3 0  9999,2 45388  53.0425  60.8616 0001795  98.1695 261.9524 15.66979756332307
STARLINK-1283,45389,53.0436,0.0001194,15.61387654,382.8404812339795,384.4551954533763,1 45389U 20019AF  26081.25002315  .01401472  00000+0  14498-1 0  9991,2 45389  53.0436  48.9874 0001194  92.3794  24.6442 15.61387654  5767
STARLINK-1284,45390,53.0483,0.000512,15.53854995,402.00984780592717,408.95627474867524,1 45390U 20019AG  26081.22804505  .00057922  00000+0  88532-3 0  9999,2 45390  53.0483  70.5545 0005120  59.5220 300.6294 15.53854995332177
STARLINK-1297,45395,53.0474,0.0005912,15.56435187,393.9778812882287,401.98996666874064,1 45395U 20019AM  26081.21924101  .00068194  00000+0  94566-3 0  9995,2 45395  53.0474  70.0865 0005912  64.0901 296.0719 15.56435187331369
STARLINK-1307,45397,53.0549,0.0002952,15.50645904,412.83376946615226,416.84434252961455,1 45397U 20019AP  26081.25339042  .00029423  00000+0  51043-3 0  9990,2 45397  53.0549  70.4311 0002952  64.4763 295.6550 15.50645904332009
STARLINK-1255,45399,53.0426,0.0001639,15.54079306,403.7185660762116,405.9420227553219,1 45399U 20019AR  26081.17344419  .00074483  00000+0  11253-2 0  9991,2 45399  53.0426  42.5495 0001639  61.1261 298.9913 15.54079306332376
STARLINK-1260,45404,53.16,8.96e-05,15.30347685,474.16012325373777,475.38816493075865,1 45404U 20019AW  26081.23800807  .00023232  00000+0  79045-3 0  9993,2 45404  53.1600  70.9525 0000896  84.8437 275.2666 15.30347685331899
STARLINK-1263,45405,53.1616,0.0001581,15.30197095,474.1402269059099,476.3072595729227,1 45405U 20019AX  26081.22657883  .00000427  00000+0  26557-4 0  9999,2 45405  53.1616  71.0368 0001581  89.9167 270.2015 15.30197095331893
